[{"OBJECT_NAME":"STARLINK-30551","OBJECT_ID":"2023-160J","EPOCH":"2026-03-08T03:15:35.109792","MEAN_MOTION":15.02628096,"ECCENTRICITY":0.00011253,"INCLINATION":43.0022,"RA_OF_ASC_NODE":88.7362,"ARG_OF_PERICENTER":177.083,"MEAN_ANOMALY":183.0019,"EPHEMERIS_TYPE":0,"CLASSIFICATION_TYPE":"U","NORAD_CAT_ID":58083,"ELEMENT_SET_NO":999,"REV_AT_EPOCH":13268,"BSTAR":0.00093979265,"MEAN_MOTION_DOT":0.00012545,"MEAN_MOTION_DDOT":0},{"OBJECT_NAME":"ELECTRON KICK STAGE R\/B","OBJECT_ID":"2021-004B","EPOCH":"2026-03-09T21:16:05.300544","MEAN_MOTION":14.42553081,"ECCENTRICITY":0.04246143,"INCLINATION":90.0967,"RA_OF_ASC_NODE":240.1441,"ARG_OF_PERICENTER":240.2414,"MEAN_ANOMALY":115.592,"EPHEMERIS_TYPE":0,"CLASSIFICATION_TYPE":"U","NORAD_CAT_ID":47347,"ELEMENT_SET_NO":999,"REV_AT_EPOCH":26720,"BSTAR":0.00099724223,"MEAN_MOTION_DOT":0.00010097,"MEAN_MOTION_DDOT":0}]
